{
    "links": {
        "self": "http://www.neowsapp.com/rest/v1/neo/3789739?api_key=iIulBulltgU6a56xZRHN4H3l9WmuAYTsLGpBGhQ2"
    },
    "id": "3789739",
    "neo_reference_id": "3789739",
    "name": "(2017 WB28)",
    "designation": "2017 WB28",
    "nasa_jpl_url": "http://ssd.jpl.nasa.gov/sbdb.cgi?sstr=3789739",
    "absolute_magnitude_h": 26.2,
    "estimated_diameter": {
        "kilometers": {
            "estimated_diameter_min": 0.0152951935,
            "estimated_diameter_max": 0.0342010925
        },
        "meters": {
            "estimated_diameter_min": 15.2951935344,
            "estimated_diameter_max": 34.201092472
        },
        "miles": {
            "estimated_diameter_min": 0.0095039897,
            "estimated_diameter_max": 0.021251567
        },
        "feet": {
            "estimated_diameter_min": 50.1810827555,
            "estimated_diameter_max": 112.2083122258
        }
    },
    "is_potentially_hazardous_asteroid": false,
    "close_approach_data": [
        {
            "close_approach_date": "2017-11-20",
            "close_approach_date_full": "2017-Nov-20 12:21",
            "epoch_date_close_approach": 1511180460000,
            "relative_velocity": {
                "kilometers_per_second": "16.034473386",
                "kilometers_per_hour": "57724.1041895269",
                "miles_per_hour": "35867.513517098"
            },
            "miss_distance": {
                "astronomical": "0.0164447569",
                "lunar": "6.3970104341",
                "kilometers": "2460100.604907803",
                "miles": "1528635.6321135614"
            },
            "orbiting_body": "Earth"
        }
    ],
    "orbital_data": {
        "orbit_id": "1",
        "orbit_determination_date": "2017-11-28 11:12:07",
        "first_observation_date": "2017-11-26",
        "last_observation_date": "2017-11-28",
        "data_arc_in_days": 2,
        "observations_used": 26,
        "orbit_uncertainty": "8",
        "minimum_orbit_intersection": ".0162933",
        "jupiter_tisserand_invariant": "3.720",
        "epoch_osculation": "2458084.5",
        "eccentricity": ".5986429523897885",
        "semi_major_axis": "1.885590886526454",
        "inclination": "5.341891499076501",
        "ascending_node_longitude": "67.95087795958537",
        "orbital_period": "945.7353718917457",
        "perihelion_distance": ".7567951912169788",
        "perihelion_argument": "281.6004254663898",
        "aphelion_distance": "3.014386581835928",
        "perihelion_time": "2458034.196495359113",
        "mean_anomaly": "19.14833917493805",
        "mean_motion": ".3806561652440845",
        "equinox": "J2000",
        "orbit_class": {
            "orbit_class_type": "APO",
            "orbit_class_description": "Near-Earth asteroid orbits which cross the Earth’s orbit similar to that of 1862 Apollo",
            "orbit_class_range": "a (semi-major axis) > 1.0 AU; q (perihelion) < 1.017 AU"
        }
    },
    "is_sentry_object": false
}